SL-16 R/B               
1 22566U 93016B   26038.81274663 -.00000121  00000+0 -37816-4 0  9990
2 22566  71.0070 277.9355 0010246 354.9742   5.1276 14.15303911697947
COSMOS 2242             
1 22626U 93024A   26038.81416154  .00002466  00000+0  21466-3 0  9994
2 22626  82.5191 295.2910 0017648  49.2060 311.0689 14.96425260775928
SL-16 R/B               
1 22803U 93059B   26038.55042140  .00000209  00000+0  12714-3 0  9999
2 22803  70.9892  74.6871 0019494 257.8699 102.0241 14.17227100675269
ARIANE 40 R/B           
1 22830U 93061H   26038.81096825  .00000263  00000+0  11224-3 0  9995
2 22830  98.4980 108.2787 0010880  18.7826 341.3757 14.32845050689822
COSMOS 2278             
1 23087U 94023A   26038.82287226 -.00000163  00000+0 -60451-4 0  9995
2 23087  71.0501 237.5840 0006575  69.9581 290.2249 14.14363871640585
SL-16 R/B               
1 23088U 94023B   26038.67082332  .00000012  00000+0  30810-4 0  9997
2 23088  70.9998 133.9321 0004462 313.2838  46.7911 14.15003517641849
SL-16 R/B               
1 23343U 94074B   26038.70541237  .00000654  00000+0  94384-4 0  9993
2 23343  97.7148  70.7323 0005731 330.6269 145.7992 14.79371919682813
SL-16 R/B               
1 23405U 94077B   26038.45216405  .00000056  00000+0  53108-4 0  9998
2 23405  70.9814  56.1032 0004348 237.5119 122.5584 14.15556854611952
ARIANE 40+ R/B          
1 23561U 95021B   26038.80390715  .00000389  00000+0  13811-3 0  9992
2 23561  98.4559 110.6823 0006017 224.1598 245.8337 14.39750253614940
SL-16 R/B               
1 23705U 95058B   26038.81100977  .00000312  00000+0  18398-3 0  9993
2 23705  71.0189 242.9844 0012315 174.9637 185.1612 14.15491983563628
SL-16 R/B               
1 24298U 96051B   26038.85441935  .00000085  00000+0  72727-4 0  9995
2 24298  70.7565 238.3898 0017595 189.7680 170.3100 14.12407095517439
ORBVIEW 2 (SEASTAR)     
1 24883U 97037A   26038.44574351  .00000439  00000+0  16906-3 0  9993
2 24883  98.8513 201.9653 0002876 133.6052 226.5372 14.35471263504136
