CCSDS_OMM_VERS = 2.0
CREATION_DATE  = 
ORIGINATOR     = 

OBJECT_NAME    = SL-16 R/B
OBJECT_ID      = 1993-016B
CENTER_NAME    = EARTH
REF_FRAME      = TEME
TIME_SYSTEM    = UTC
MEAN_ELEMENT_THEORY = SGP/SGP4

EPOCH          = 2026-02-07T19:30:21.308832
MEAN_MOTION    = 14.15303911
ECCENTRICITY   = .0010246
INCLINATION    = 71.0070
RA_OF_ASC_NODE = 277.9355
ARG_OF_PERICENTER = 354.9742
MEAN_ANOMALY   = 5.1276

EPHEMERIS_TYPE = 0
CLASSIFICATION_TYPE = U
NORAD_CAT_ID   = 22566
ELEMENT_SET_NO = 999
REV_AT_EPOCH   = 69794
BSTAR          = -.37816E-4
MEAN_MOTION_DOT = -.121E-5
MEAN_MOTION_DDOT = 0

CCSDS_OMM_VERS = 2.0
CREATION_DATE  = 
ORIGINATOR     = 

OBJECT_NAME    = COSMOS 2242
OBJECT_ID      = 1993-024A
CENTER_NAME    = EARTH
REF_FRAME      = TEME
TIME_SYSTEM    = UTC
MEAN_ELEMENT_THEORY = SGP/SGP4

EPOCH          = 2026-02-07T19:32:23.557056
MEAN_MOTION    = 14.96425260
ECCENTRICITY   = .0017648
INCLINATION    = 82.5191
RA_OF_ASC_NODE = 295.2910
ARG_OF_PERICENTER = 49.2060
MEAN_ANOMALY   = 311.0689

EPHEMERIS_TYPE = 0
CLASSIFICATION_TYPE = U
NORAD_CAT_ID   = 22626
ELEMENT_SET_NO = 999
REV_AT_EPOCH   = 77592
BSTAR          = .21466E-3
MEAN_MOTION_DOT = .2466E-4
MEAN_MOTION_DDOT = 0

CCSDS_OMM_VERS = 2.0
CREATION_DATE  = 
ORIGINATOR     = 

OBJECT_NAME    = SL-16 R/B
OBJECT_ID      = 1993-059B
CENTER_NAME    = EARTH
REF_FRAME      = TEME
TIME_SYSTEM    = UTC
MEAN_ELEMENT_THEORY = SGP/SGP4

EPOCH          = 2026-02-07T13:12:36.408960
MEAN_MOTION    = 14.17227100
ECCENTRICITY   = .0019494
INCLINATION    = 70.9892
RA_OF_ASC_NODE = 74.6871
ARG_OF_PERICENTER = 257.8699
MEAN_ANOMALY   = 102.0241

EPHEMERIS_TYPE = 0
CLASSIFICATION_TYPE = U
NORAD_CAT_ID   = 22803
ELEMENT_SET_NO = 999
REV_AT_EPOCH   = 67526
BSTAR          = .12714E-3
MEAN_MOTION_DOT = .209E-5
MEAN_MOTION_DDOT = 0

CCSDS_OMM_VERS = 2.0
CREATION_DATE  = 
ORIGINATOR     = 

OBJECT_NAME    = ARIANE 40 R/B
OBJECT_ID      = 1993-061H
CENTER_NAME    = EARTH
REF_FRAME      = TEME
TIME_SYSTEM    = UTC
MEAN_ELEMENT_THEORY = SGP/SGP4

EPOCH          = 2026-02-07T19:27:47.656800
MEAN_MOTION    = 14.32845050
ECCENTRICITY   = .001088
INCLINATION    = 98.4980
RA_OF_ASC_NODE = 108.2787
ARG_OF_PERICENTER = 18.7826
MEAN_ANOMALY   = 341.3757

EPHEMERIS_TYPE = 0
CLASSIFICATION_TYPE = U
NORAD_CAT_ID   = 22830
ELEMENT_SET_NO = 999
REV_AT_EPOCH   = 68982
BSTAR          = .11224E-3
MEAN_MOTION_DOT = .263E-5
MEAN_MOTION_DDOT = 0

CCSDS_OMM_VERS = 2.0
CREATION_DATE  = 
ORIGINATOR     = 

OBJECT_NAME    = COSMOS 2278
OBJECT_ID      = 1994-023A
CENTER_NAME    = EARTH
REF_FRAME      = TEME
TIME_SYSTEM    = UTC
MEAN_ELEMENT_THEORY = SGP/SGP4

EPOCH          = 2026-02-07T19:44:56.163264
MEAN_MOTION    = 14.14363871
ECCENTRICITY   = .0006575
INCLINATION    = 71.0501
RA_OF_ASC_NODE = 237.5840
ARG_OF_PERICENTER = 69.9581
MEAN_ANOMALY   = 290.2249

EPHEMERIS_TYPE = 0
CLASSIFICATION_TYPE = U
NORAD_CAT_ID   = 23087
ELEMENT_SET_NO = 999
REV_AT_EPOCH   = 64058
BSTAR          = -.60451E-4
MEAN_MOTION_DOT = -.163E-5
MEAN_MOTION_DDOT = 0

CCSDS_OMM_VERS = 2.0
CREATION_DATE  = 
ORIGINATOR     = 

OBJECT_NAME    = SL-16 R/B
OBJECT_ID      = 1994-023B
CENTER_NAME    = EARTH
REF_FRAME      = TEME
TIME_SYSTEM    = UTC
MEAN_ELEMENT_THEORY = SGP/SGP4

EPOCH          = 2026-02-07T16:05:59.134848
MEAN_MOTION    = 14.15003517
ECCENTRICITY   = .0004462
INCLINATION    = 70.9998
RA_OF_ASC_NODE = 133.9321
ARG_OF_PERICENTER = 313.2838
MEAN_ANOMALY   = 46.7911

EPHEMERIS_TYPE = 0
CLASSIFICATION_TYPE = U
NORAD_CAT_ID   = 23088
ELEMENT_SET_NO = 999
REV_AT_EPOCH   = 64184
BSTAR          = .3081E-4
MEAN_MOTION_DOT = .12E-6
MEAN_MOTION_DDOT = 0

CCSDS_OMM_VERS = 2.0
CREATION_DATE  = 
ORIGINATOR     = 

OBJECT_NAME    = SL-16 R/B
OBJECT_ID      = 1994-074B
CENTER_NAME    = EARTH
REF_FRAME      = TEME
TIME_SYSTEM    = UTC
MEAN_ELEMENT_THEORY = SGP/SGP4

EPOCH          = 2026-02-07T16:55:47.628768
MEAN_MOTION    = 14.79371919
ECCENTRICITY   = .0005731
INCLINATION    = 97.7148
RA_OF_ASC_NODE = 70.7323
ARG_OF_PERICENTER = 330.6269
MEAN_ANOMALY   = 145.7992

EPHEMERIS_TYPE = 0
CLASSIFICATION_TYPE = U
NORAD_CAT_ID   = 23343
ELEMENT_SET_NO = 999
REV_AT_EPOCH   = 68281
BSTAR          = .94384E-4
MEAN_MOTION_DOT = .654E-5
MEAN_MOTION_DDOT = 0

CCSDS_OMM_VERS = 2.0
CREATION_DATE  = 
ORIGINATOR     = 

OBJECT_NAME    = SL-16 R/B
OBJECT_ID      = 1994-077B
CENTER_NAME    = EARTH
REF_FRAME      = TEME
TIME_SYSTEM    = UTC
MEAN_ELEMENT_THEORY = SGP/SGP4

EPOCH          = 2026-02-07T10:51:06.973920
MEAN_MOTION    = 14.15556854
ECCENTRICITY   = .00043482
INCLINATION    = 70.9814
RA_OF_ASC_NODE = 56.1032
ARG_OF_PERICENTER = 237.5119
MEAN_ANOMALY   = 122.5584

EPHEMERIS_TYPE = 0
CLASSIFICATION_TYPE = U
NORAD_CAT_ID   = 23405
ELEMENT_SET_NO = 999
REV_AT_EPOCH   = 61195
BSTAR          = .53108099E-4
MEAN_MOTION_DOT = .56E-6
MEAN_MOTION_DDOT = 0

CCSDS_OMM_VERS = 2.0
CREATION_DATE  = 
ORIGINATOR     = 

OBJECT_NAME    = ARIANE 40+ R/B
OBJECT_ID      = 1995-021B
CENTER_NAME    = EARTH
REF_FRAME      = TEME
TIME_SYSTEM    = UTC
MEAN_ELEMENT_THEORY = SGP/SGP4

EPOCH          = 2026-02-07T19:17:37.577760
MEAN_MOTION    = 14.39750253
ECCENTRICITY   = .0006017
INCLINATION    = 98.4559
RA_OF_ASC_NODE = 110.6823
ARG_OF_PERICENTER = 224.1598
MEAN_ANOMALY   = 245.8337

EPHEMERIS_TYPE = 0
CLASSIFICATION_TYPE = U
NORAD_CAT_ID   = 23561
ELEMENT_SET_NO = 999
REV_AT_EPOCH   = 61494
BSTAR          = .13811E-3
MEAN_MOTION_DOT = .389E-5
MEAN_MOTION_DDOT = 0

CCSDS_OMM_VERS = 2.0
CREATION_DATE  = 
ORIGINATOR     = 

OBJECT_NAME    = SL-16 R/B
OBJECT_ID      = 1995-058B
CENTER_NAME    = EARTH
REF_FRAME      = TEME
TIME_SYSTEM    = UTC
MEAN_ELEMENT_THEORY = SGP/SGP4

EPOCH          = 2026-02-07T19:27:51.244128
MEAN_MOTION    = 14.15491983
ECCENTRICITY   = .0012315
INCLINATION    = 71.0189
RA_OF_ASC_NODE = 242.9844
ARG_OF_PERICENTER = 174.9637
MEAN_ANOMALY   = 185.1612

EPHEMERIS_TYPE = 0
CLASSIFICATION_TYPE = U
NORAD_CAT_ID   = 23705
ELEMENT_SET_NO = 999
REV_AT_EPOCH   = 56362
BSTAR          = .18398E-3
MEAN_MOTION_DOT = .312E-5
MEAN_MOTION_DDOT = 0

CCSDS_OMM_VERS = 2.0
CREATION_DATE  = 
ORIGINATOR     = 

OBJECT_NAME    = SL-16 R/B
OBJECT_ID      = 1996-051B
CENTER_NAME    = EARTH
REF_FRAME      = TEME
TIME_SYSTEM    = UTC
MEAN_ELEMENT_THEORY = SGP/SGP4

EPOCH          = 2026-02-07T20:30:21.831840
MEAN_MOTION    = 14.12407095
ECCENTRICITY   = .0017595
INCLINATION    = 70.7565
RA_OF_ASC_NODE = 238.3898
ARG_OF_PERICENTER = 189.7680
MEAN_ANOMALY   = 170.3100

EPHEMERIS_TYPE = 0
CLASSIFICATION_TYPE = U
NORAD_CAT_ID   = 24298
ELEMENT_SET_NO = 999
REV_AT_EPOCH   = 51743
BSTAR          = .72727E-4
MEAN_MOTION_DOT = .85E-6
MEAN_MOTION_DDOT = 0

CCSDS_OMM_VERS = 2.0
CREATION_DATE  = 
ORIGINATOR     = 

OBJECT_NAME    = ORBVIEW 2 (SEASTAR)
OBJECT_ID      = 1997-037A
CENTER_NAME    = EARTH
REF_FRAME      = TEME
TIME_SYSTEM    = UTC
MEAN_ELEMENT_THEORY = SGP/SGP4

EPOCH          = 2026-02-07T10:41:52.239264
MEAN_MOTION    = 14.35471263
ECCENTRICITY   = .00028763
INCLINATION    = 98.8513
RA_OF_ASC_NODE = 201.9653
ARG_OF_PERICENTER = 133.6052
MEAN_ANOMALY   = 226.5372

EPHEMERIS_TYPE = 0
CLASSIFICATION_TYPE = U
NORAD_CAT_ID   = 24883
ELEMENT_SET_NO = 999
REV_AT_EPOCH   = 50413
BSTAR          = .16905852E-3
MEAN_MOTION_DOT = .439E-5
MEAN_MOTION_DDOT = 0

